CALSPHERE 1             
1 00900U 64063C   22223.51935760  .00000390  00000+0  40594-3 0  9991
2 00900  90.1739  41.9131 0025899 212.5176 202.3360 13.73860785878227
CALSPHERE 2             
1 00902U 64063E   22223.56221281  .00000028  00000+0  29432-4 0  9991
2 00902  90.1865  45.0315 0018092 354.2979  74.1386 13.52719963666226
LCS 1                   
1 01361U 65034C   22223.45384650  .00000028  00000+0  26335-2 0  9995
2 01361  32.1396 274.7144 0012702  71.8623 288.3257  9.89301859 70672
TEMPSAT 1               
1 01512U 65065E   22223.55444270  .00000035  00000+0  52347-4 0  9995
2 01512  89.9126 218.1990 0068313 234.9272 251.4587 13.33453209772715
CALSPHERE 4A            
1 01520U 65065H   22223.47730743  .00000098  00000+0  17063-3 0  9992
2 01520  89.9926 130.1342 0071064 107.3661 315.1978 13.35898106775006
OPS 5712 (P/L 160)      
1 02826U 67053A   22223.48747617  .00001663  00000+0  43722-3 0  9990
2 02826  69.9284 159.9703 0008316 275.8353  84.1832 14.50811703860711
OPS 5712 (P/L 153)      
1 02874U 67053H   22223.50955316  .00000010  00000+0  46056-4 0  9992
2 02874  69.9715 247.2159 0009393 234.6194 125.4034 13.96412541810513
SURCAL 150B             
1 02909U 67053J   22223.45151281  .00002734  00000+0  52934-3 0  9990
2 02909  69.9472 146.7878 0005893 292.9851  67.0668 14.64398670871660
RIGIDSPHERE 2 (LCS 4)   
1 05398U 71067E   22223.52753293  .00000422  00000+0  14105-3 0  9994
2 05398  87.6258   7.7909 0062372 201.7582 158.0965 14.34283038672151
COSMOS 2493 (SKRL-756 1)
1 39490U 13078A   22223.53655475  .00001104  00000+0  11313-3 0  9992
2 39490  82.4194 181.3952 0015306 275.2082  84.7389 14.89545578467894
COSMOS 2494 (SKRL-756 2)
1 39491U 13078B   22223.52497816  .00001149  00000+0  11338-3 0  9991
2 39491  82.4197 175.0680 0019880 248.5545 111.3554 14.91003890468468
